{"type": "FeatureCollection", "features": [{"type": "Feature", "properties": {"norad_id": 24876, "name": "GPS BIIR-2  (PRN 13)", "group": "gnss", "lat": -51.95067131329636, "lon": 46.276652810636236, "alt_km": 20347.695198938087, "timestamp": "2025-12-03T15:48:03.315161+00:00", "meta": {"OBJECT_NAME": "GPS BIIR-2  (PRN 13)", "OBJECT_ID": "1997-035A", "EPOCH": "2025-12-02T18:15:55.288512", "MEAN_MOTION": 2.00563455, "ECCENTRICITY": 0.00966749, "INCLINATION": 55.8903, "RA_OF_ASC_NODE": 106.2592, "ARG_OF_PERICENTER": 57.0161, "MEAN_ANOMALY": 303.8791, "EPHEMERIS_TYPE": 0, "CLASSIFICATION_TYPE": "U", "NORAD_CAT_ID": 24876, "ELEMENT_SET_NO": 999, "REV_AT_EPOCH": 20801, "BSTAR": 0, "MEAN_MOTION_DOT": 2.2e-07, "MEAN_MOTION_DDOT": 0}, "tle": {"line1": "1 24876U 97035A   25336.76105658  .00000022  00000+0  00000+0 0  9990", "line2": "2 24876  55.8903 106.2592 0096674  57.0161 303.8791  2.00563455208018"}}, "geometry": {"type": "Point", "coordinates": [46.276652810636236, -51.95067131329636]}}, {"type": "Feature", "properties": {"norad_id": 26360, "name": "GPS BIIR-4  (PRN 20)", "group": "gnss", "lat": 16.95011389572115, "lon": 39.525517141754996, "alt_km": 20258.592149133707, "timestamp": "2025-12-03T15:48:03.315212+00:00", "meta": {"OBJECT_NAME": "GPS BIIR-4  (PRN 20)", "OBJECT_ID": "2000-025A", "EPOCH": "2025-12-03T06:10:25.333824", "MEAN_MOTION": 2.00568333, "ECCENTRICITY": 0.00387923, "INCLINATION": 55.0396, "RA_OF_ASC_NODE": 27.2216, "ARG_OF_PERICENTER": 241.061, "MEAN_ANOMALY": 209.8997, "EPHEMERIS_TYPE": 0, "CLASSIFICATION_TYPE": "U", "NORAD_CAT_ID": 26360, "ELEMENT_SET_NO": 999, "REV_AT_EPOCH": 18734, "BSTAR": 0, "MEAN_MOTION_DOT": -7e-07, "MEAN_MOTION_DDOT": 0}, "tle": {"line1": "1 26360U 00025A   25337.25723766 -.00000070  00000+0  00000+0 0  9998", "line2": "2 26360  55.0396  27.2216 0038792 241.0610 209.8997  2.00568333187347"}}, "geometry": {"type": "Point", "coordinates": [39.525517141754996, 16.95011389572115]}}, {"type": "Feature", "properties": {"norad_id": 26407, "name": "GPS BIIR-5  (PRN 22)", "group": "gnss", "lat": -30.772747715451054, "lon": 67.66754121259392, "alt_km": 20140.857573380654, "timestamp": "2025-12-03T15:48:03.315229+00:00", "meta": {"OBJECT_NAME": "GPS BIIR-5  (PRN 22)", "OBJECT_ID": "2000-040A", "EPOCH": "2025-12-02T20:35:05.714592", "MEAN_MOTION": 2.00567701, "ECCENTRICITY": 0.01265555, "INCLINATION": 54.8933, "RA_OF_ASC_NODE": 222.9621, "ARG_OF_PERICENTER": 301.6247, "MEAN_ANOMALY": 60.4206, "EPHEMERIS_TYPE": 0, "CLASSIFICATION_TYPE": "U", "NORAD_CAT_ID": 26407, "ELEMENT_SET_NO": 999, "REV_AT_EPOCH": 18601, "BSTAR": 0, "MEAN_MOTION_DOT": 5.8e-07, "MEAN_MOTION_DDOT": 0}, "tle": {"line1": "1 26407U 00040A   25336.85770503  .00000058  00000+0  00000+0 0  9998", "line2": "2 26407  54.8933 222.9621 0126555 301.6247  60.4206  2.00567701186016"}}, "geometry": {"type": "Point", "coordinates": [67.66754121259392, -30.772747715451054]}}, {"type": "Feature", "properties": {"norad_id": 27663, "name": "GPS BIIR-8  (PRN 16)", "group": "gnss", "lat": -4.530454541504607, "lon": -140.4435519701732, "alt_km": 19966.4051763785, "timestamp": "2025-12-03T15:48:03.315243+00:00", "meta": {"OBJECT_NAME": "GPS BIIR-8  (PRN 16)", "OBJECT_ID": "2003-005A", "EPOCH": "2025-12-02T07:21:58.833216", "MEAN_MOTION": 2.00571367, "ECCENTRICITY": 0.014703, "INCLINATION": 54.9261, "RA_OF_ASC_NODE": 222.7933, "ARG_OF_PERICENTER": 51.6544, "MEAN_ANOMALY": 48.4553, "EPHEMERIS_TYPE": 0, "CLASSIFICATION_TYPE": "U", "NORAD_CAT_ID": 27663, "ELEMENT_SET_NO": 999, "REV_AT_EPOCH": 16736, "BSTAR": 0, "MEAN_MOTION_DOT": 5.5e-07, "MEAN_MOTION_DDOT": 0}, "tle": {"line1": "1 27663U 03005A   25336.30693094  .00000055  00000+0  00000+0 0  9993", "line2": "2 27663  54.9261 222.7933 0147030  51.6544  48.4553  2.00571367167364"}}, "geometry": {"type": "Point", "coordinates": [-140.4435519701732, -4.530454541504607]}}, {"type": "Feature", "properties": {"norad_id": 28190, "name": "GPS BIIR-11 (PRN 19)", "group": "gnss", "lat": 20.384760246355157, "lon": 88.48424662940182, "alt_km": 19899.468419905574, "timestamp": "2025-12-03T15:48:03.315257+00:00", "meta": {"OBJECT_NAME": "GPS BIIR-11 (PRN 19)", "OBJECT_ID": "2004-009A", "EPOCH": "2025-11-26T05:14:39.537024", "MEAN_MOTION": 2.00561394, "ECCENTRICITY": 0.01080929, "INCLINATION": 55.0011, "RA_OF_ASC_NODE": 283.885, "ARG_OF_PERICENTER": 167.3745, "MEAN_ANOMALY": 15.773, "EPHEMERIS_TYPE": 0, "CLASSIFICATION_TYPE": "U", "NORAD_CAT_ID": 28190, "ELEMENT_SET_NO": 999, "REV_AT_EPOCH": 15887, "BSTAR": 0, "MEAN_MOTION_DOT": -2.4e-07, "MEAN_MOTION_DDOT": 0}, "tle": {"line1": "1 28190U 04009A   25330.21851316 -.00000024  00000+0  00000+0 0  9998", "line2": "2 28190  55.0011 283.8850 0108092 167.3745  15.7730  2.00561394158873"}}, "geometry": {"type": "Point", "coordinates": [88.48424662940182, 20.384760246355157]}}, {"type": "Feature", "properties": {"norad_id": 28474, "name": "GPS BIIR-13 (PRN 02)", "group": "gnss", "lat": -26.563774421269457, "lon": 173.07978539053516, "alt_km": 20222.852461380902, "timestamp": "2025-12-03T15:48:03.315270+00:00", "meta": {"OBJECT_NAME": "GPS BIIR-13 (PRN 02)", "OBJECT_ID": "2004-045A", "EPOCH": "2025-12-02T14:51:16.748640", "MEAN_MOTION": 2.00568864, "ECCENTRICITY": 0.01705399, "INCLINATION": 55.2456, "RA_OF_ASC_NODE": 332.8132, "ARG_OF_PERICENTER": 308.8127, "MEAN_ANOMALY": 235.5488, "EPHEMERIS_TYPE": 0, "CLASSIFICATION_TYPE": "U", "NORAD_CAT_ID": 28474, "ELEMENT_SET_NO": 999, "REV_AT_EPOCH": 15448, "BSTAR": 0, "MEAN_MOTION_DOT": -6.2e-07, "MEAN_MOTION_DDOT": 0}, "tle": {"line1": "1 28474U 04045A   25336.61894385 -.00000062  00000+0  00000+0 0  9998", "line2": "2 28474  55.2456 332.8132 0170539 308.8127 235.5488  2.00568864154486"}}, "geometry": {"type": "Point", "coordinates": [173.07978539053516, -26.563774421269457]}}, {"type": "Feature", "properties": {"norad_id": 28874, "name": "GPS BIIRM-1 (PRN 17)", "group": "gnss", "lat": 6.322568935512654, "lon": 96.60325196495592, "alt_km": 20362.734952755094, "timestamp": "2025-12-03T15:48:03.315284+00:00", "meta": {"OBJECT_NAME": "GPS BIIRM-1 (PRN 17)", "OBJECT_ID": "2005-038A", "EPOCH": "2025-12-02T16:12:27.400896", "MEAN_MOTION": 2.00548806, "ECCENTRICITY": 0.01328204, "INCLINATION": 55.0411, "RA_OF_ASC_NODE": 281.1063, "ARG_OF_PERICENTER": 293.4087, "MEAN_ANOMALY": 250.3584, "EPHEMERIS_TYPE": 0, "CLASSIFICATION_TYPE": "U", "NORAD_CAT_ID": 28874, "ELEMENT_SET_NO": 999, "REV_AT_EPOCH": 14789, "BSTAR": 0, "MEAN_MOTION_DOT": -4.3e-07, "MEAN_MOTION_DDOT": 0}, "tle": {"line1": "1 28874U 05038A   25336.67531714 -.00000043  00000+0  00000+0 0  9994", "line2": "2 28874  55.0411 281.1063 0132820 293.4087 250.3584  2.00548806147896"}}, "geometry": {"type": "Point", "coordinates": [96.60325196495592, 6.322568935512654]}}, {"type": "Feature", "properties": {"norad_id": 28899, "name": "INMARSAT 4-F2 (SOUTHPAN/PRN 122)", "group": "gnss", "lat": 3.7007249045085326, "lon": 93.12147168358206, "alt_km": 35799.46281093629, "timestamp": "2025-12-03T15:48:03.315298+00:00", "meta": {"OBJECT_NAME": "INMARSAT 4-F2 (SOUTHPAN/PRN 122)", "OBJECT_ID": "2005-044A", "EPOCH": "2025-12-02T23:01:43.276224", "MEAN_MOTION": 1.00271058, "ECCENTRICITY": 0.00034314, "INCLINATION": 4.8387, "RA_OF_ASC_NODE": 43.6573, "ARG_OF_PERICENTER": 208.6866, "MEAN_ANOMALY": 308.6418, "EPHEMERIS_TYPE": 0, "CLASSIFICATION_TYPE": "U", "NORAD_CAT_ID": 28899, "ELEMENT_SET_NO": 999, "REV_AT_EPOCH": 7355, "BSTAR": 0, "MEAN_MOTION_DOT": -2.44e-06, "MEAN_MOTION_DDOT": 0}, "tle": {"line1": "1 28899U 05044A   25336.95952866 -.00000244  00000+0  00000+0 0  9997", "line2": "2 28899   4.8387  43.6573 0003431 208.6866 308.6418  1.00271058 73557"}}, "geometry": {"type": "Point", "coordinates": [93.12147168358206, 3.7007249045085326]}}, {"type": "Feature", "properties": {"norad_id": 29486, "name": "GPS BIIRM-2 (PRN 31)", "group": "gnss", "lat": 52.894862022338366, "lon": -131.27947714576385, "alt_km": 19920.00901319325, "timestamp": "2025-12-03T15:48:03.315310+00:00", "meta": {"OBJECT_NAME": "GPS BIIRM-2 (PRN 31)", "OBJECT_ID": "2006-042A", "EPOCH": "2025-12-02T13:41:33.603648", "MEAN_MOTION": 2.00554444, "ECCENTRICITY": 0.01073635, "INCLINATION": 54.6926, "RA_OF_ASC_NODE": 159.1445, "ARG_OF_PERICENTER": 51.7169, "MEAN_ANOMALY": 320.193, "EPHEMERIS_TYPE": 0, "CLASSIFICATION_TYPE": "U", "NORAD_CAT_ID": 29486, "ELEMENT_SET_NO": 999, "REV_AT_EPOCH": 14045, "BSTAR": 0, "MEAN_MOTION_DOT": 1.17e-06, "MEAN_MOTION_DDOT": 0}, "tle": {"line1": "1 29486U 06042A   25336.57052782  .00000117  00000+0  00000+0 0  9993", "line2": "2 29486  54.6926 159.1445 0107363  51.7169 320.1930  2.00554444140451"}}, "geometry": {"type": "Point", "coordinates": [-131.27947714576385, 52.894862022338366]}}, {"type": "Feature", "properties": {"norad_id": 29601, "name": "GPS BIIRM-3 (PRN 12)", "group": "gnss", "lat": 35.320566705846765, "lon": 12.00118308077163, "alt_km": 20019.900312664806, "timestamp": "2025-12-03T15:48:03.315324+00:00", "meta": {"OBJECT_NAME": "GPS BIIRM-3 (PRN 12)", "OBJECT_ID": "2006-052A", "EPOCH": "2025-12-01T23:28:25.341312", "MEAN_MOTION": 2.0057269, "ECCENTRICITY": 0.0087496, "INCLINATION": 54.9731, "RA_OF_ASC_NODE": 221.8254, "ARG_OF_PERICENTER": 87.3285, "MEAN_ANOMALY": 273.7543, "EPHEMERIS_TYPE": 0, "CLASSIFICATION_TYPE": "U", "NORAD_CAT_ID": 29601, "ELEMENT_SET_NO": 999, "REV_AT_EPOCH": 13945, "BSTAR": 0, "MEAN_MOTION_DOT": 5.5e-07, "MEAN_MOTION_DDOT": 0}, "tle": {"line1": "1 29601U 06052A   25335.97807108  .00000055  00000+0  00000+0 0  9997", "line2": "2 29601  54.9731 221.8254 0087496  87.3285 273.7543  2.00572690139454"}}, "geometry": {"type": "Point", "coordinates": [12.00118308077163, 35.320566705846765]}}]}